ONEWEB-0697             
1 61603U 24188K   25205.68264083 -.00000091  00000+0 -29266-3 0  9999
2 61603  87.8798  86.3639 0002045  54.2873 305.8445 13.11413922 41528
ONEWEB-0698             
1 61604U 24188L   25206.11839945  .00000604  00000+0  16688-2 0  9995
2 61604  87.8803  86.2890 0002697  63.1368 297.0036 13.11416122 39648
ONEWEB-0699             
1 61605U 24188M   25205.71821549  .00000097  00000+0  24222-3 0  9992
2 61605  87.8801 101.5656 0002103  59.6578 300.4757 13.10370414 38553
ONEWEB-0700             
1 61606U 24188N   25206.17800313  .00000171  00000+0  45418-3 0  9993
2 61606  87.8761 101.3746 0001487  54.6070 305.5196 13.10370317 38660
ONEWEB-0701             
1 61607U 24188P   25205.73644734 -.00000717  00000+0 -20891-2 0  9993
2 61607  87.8806 101.5702 0002154  53.6401 306.4925 13.10372245 40423
ONEWEB-0702             
1 61608U 24188Q   25206.16416119 -.00000356  00000+0 -10402-2 0  9992
2 61608  87.8743  86.2391 0001765  48.3546 311.7733 13.11417682 39706
ONEWEB-0704             
1 61609U 24188R   25205.72483661 -.00000321  00000+0 -95518-3 0  9994
2 61609  87.8828 101.5112 0001783  43.8670 316.2599 13.10369782 38559
ONEWEB-0705             
1 61610U 24188S   25205.72980436 -.00000549  00000+0 -16089-2 0  9995
2 61610  87.8799 101.5550 0000713  50.4568 309.6622 13.10370538 32576
